zip,city,state,cws_id,cws_name,cws_dist
18940,NEWTOWN,PA,USC00363200,GEORGE SCHOOL,461.0
38477,PROSPECT,TN,US1TNGL0002,PROSPECT 2.0NE,1614.0
21765,LISBON,MD,US1MDHW0017,WOODBINE 1.6 SE,2024.0
79364,SLATON,TX,USC00418373,SLATON,1000.0
38858,NETTLETON,MS,USC00220176,AMORY 4 W,13086.0
13856,WALTON,NY,USC00308936,WALTON,792.0
35016,ARAB,AL,US1ALMS0002,ARAB 2.6 WNW,4550.0
21207,GWYNN OAK,MD,US1MDBL0027,GWYNN OAK 1.2 SE,421.0
49715,BRIMLEY,MI,USC00206051,NORWAYS,10493.0
01921,BOXFORD,MA,US1MAES0012,BOXFORD 2.4 S,3367.0
55007,BROOK PARK,MN,USC00213793,HINCKLEY,8303.0
82831,ARVADA,WY,USC00480380,ARVADA 3 N,6714.0
13301,ALDER CREEK,NY,USC00302917,FORESTPORT,1501.0
03820,DOVER,NH,US1NHST0019,DOVER 0.8 E,293.0
52140,DORCHESTER,IA,USC00132311,DORCHESTER,1179.0
29321,BUFFALO,SC,US1SCUN0003,BUFFALO 1.5 NE,2594.0
21074,HAMPSTEAD,MD,US1MDCR0012,MANCHESTER 0.9 SSW,5830.0
47876,SAINT MARY OF THE WOODS,IN,USC00128732,TERRE HAUTE WTR CORP,5210.0
92055,CAMP PENDLETON,CA,US1CASD0004,OCEANSIDE 8.4NE,3843.0
89420,LUNING,NV,US1NVMN0003,LUNING 0.2 S,11221.0
80816,FLORISSANT,CO,USC00052965,FLORISSANT FOSSIL BED,4156.0
95452,KENWOOD,CA,US1CASN0104,KENWOOD 1.4 NNW,1954.0
32410,MEXICO BEACH,FL,US1FLGF0003,PORT ST. JOE 8.1 NNW,4645.0
43109,BRICE,OH,US1OHFR0037,REYNOLDSBURG 1.6 W,5423.0
67745,MC DONALD,KS,USC00145127,MC DONALD,503.0
71483,WINNFIELD,LA,USC00169803,WINNFIELD 3 N,4930.0
29430,BETHERA,SC,USC00380694,BETHERA 4 SW,6193.0
08098,WOODSTOWN,NJ,US1NJSL0002,WOODSTOWN 0.6 NW,1363.0
98252,GRANITE FALLS,WA,USC00457657,SILVERTON,13026.0
19503,BALLY,PA,US1PAMT0034,BALLY 2.2 SE,3098.0
99571,COLD BAY,AK,USC00503591,HERENDEEN BAY,8170.0
28787,WEAVERVILLE,NC,US1NCBC0047,WEAVERVILLE 1.4 SE,1131.0
32080,SAINT AUGUSTINE,FL,US1FLSJ0021,ST. AUGUSTINE 8.2 SSE,2093.0
98221,ANACORTES,WA,USC00454397,LAKE DOUGLASS,744.0
97367,LINCOLN CITY,OR,USC00355980,NELSCOTT,4856.0
47201,COLUMBUS,IN,US1INBW0008,COLUMBUS 0.4 WSW,881.0
58746,KENMARE,ND,USC00324646,KENMARE 1 WSW,1289.0
12160,SLOANSVILLE,NY,USC00301052,BURTONSVILLE,9539.0
19072,NARBERTH,PA,US1PAMT0017,NARBERTH 0.5 NE,1401.0
78160,STOCKDALE,TX,USC00418773,SUTHERLAND SPRINGS,10558.0
68922,ARAPAHOE,NE,US10furn022,ARAPAHOE 0.4 NW,1613.0
60538,MONTGOMERY,IL,US1ILKD0005,MONTGOMERY 0.8 SSE,499.0
08530,LAMBERTVILLE,NJ,US1NJHN0042,LAMBERTVILLE 0.6 SSE,148.0
47436,HELTONVILLE,IN,US1INLW0021,(K9GBR)BEDFORD 7.7 NE,4888.0
75420,BRASHEAR,TX,USC00418743,SULPHUR SPRINGS,9656.0
80801,ANTON,CO,US1COWA0067,ANTON 5.8 SE,9393.0
15687,STAHLSTOWN,PA,USC00364665,KREGAR,1584.0
29074,LIBERTY HILL,SC,US1SCFR0006,WINNSBORO 12.5 ENE,9398.0
14453,FISHERS,NY,USC00308839,VICTOR 2NW,2732.0
98836,MONITOR,WA,US1WACH0038,WENATCHEE 2.3 WNW,4455.0
44645,MARSHALLVILLE,OH,USC00334967,MARSHALLVILLE 1 SSW,1876.0
02916,RUMFORD,RI,US1RIPR0011,PROVIDENCE 3.0 ENE,1507.0
97435,DRAIN,OR,USC00352406,DRAIN,4971.0
06050,NEW BRITAIN,CT,US1CTHR0065,NEWINGTON 1.9 SSW,3429.0
05360,WEST WARDSBORO,VT,USC00439591,WEST WARDSBORO,1455.0
57270,VEBLEN,SD,US1SDMR0010,VEBLEN 8.3 W,13970.0
64492,TRIMBLE,MO,US1MOCN0007,TRIMBLE 0.8 W,1477.0
86445,WILLOW BEACH,AZ,USC00029376,WILLOW BEACH,7300.0
47035,NEW TRENTON,IN,US1INDR0013,(WD8NMZ)BRIGHT 3.5 NNW,7027.0
78580,RAYMONDVILLE,TX,USC00417458,RAYMONDVILLE,778.0
43326,KENTON,OH,USC00334184,KENTON OHIO PWR COMPA,935.0
26101,PARKERSBURG,WV,US1WVWD0009,PARKERSBURG 1.0 W,2013.0
53103,BIG BEND,WI,US1WIWK0008,BIG BEND 0.1 WNW,436.0
79363,SHALLOWATER,TX,USC00418232,SHALLOWATER,499.0
03084,TEMPLE,NH,USC00273656,GREENVILLE,3159.0
84735,HATCH,UT,USC00423776,HATCH,6525.0
24162,SHAWSVILLE,VA,USC00441691,CHRISTIANSBURG,5918.0
19454,NORTH WALES,PA,US1PAMT0105,NORTH WALES 0.9 W,1904.0
88030,DEMING,NM,US1NMLU0063,DEMING 0.4 SSW,483.0
29813,HILDA,SC,USC00380490,BARNWELL 5 ENE,1738.0
38863,PONTOTOC,MS,USC00227106,PONTOTOC,983.0
23162,STUDLEY,VA,US1VAKW0002,HANOVER 5.9 ESE,7913.0
91743,GUASTI,CA,USW00003102,ONTARIO INTL AP,1921.0
58630,GLADSTONE,ND,US1NDSK0004,GLADSTONE 0.4 ESE,289.0
83414,ALTA,WY,USC00480140,ALTA 1 NNW,2580.0
25530,KENOVA,WV,USC00337857,S PT,2908.0
97078,BEAVERTON,OR,US1ORWS0031,BEAVERTON 0.7 SSE,1680.0
30646,HULL,GA,USC00099486,WINTERVILLE,4846.0
30230,HOGANSVILLE,GA,USC00094375,HOGANSVILLE,1725.0
40820,CRANKS,KY,US1VALE0002,JONESVILLE 3.1 WSW,9726.0
30104,ARAGON,GA,USC00098600,TAYLORSVILLE,8040.0
22935,DYKE,VA,US1VAGN0002,STANARDSVILLE 6.7 WSW,1634.0
85172,STANFIELD,AZ,USC00028177,STANFIELD,6781.0
27568,PINE LEVEL,NC,USC00317768,SELMA,6021.0
59443,FORT SHAW,MT,USC00248018,SUN RIVER,1923.0
68667,SURPRISE,NE,USC00258328,SURPRISE,916.0
03576,COLEBROOK,NH,USC00434603,LEMINGTON,2380.0
97111,CARLTON,OR,USS0023D03S,Miller Woods,6469.0
26335,BURNSVILLE,WV,USC00461282,BURNSVILLE LAKE,2642.0
30521,CARNESVILLE,GA,USC00091619,CARNESVILLE,673.0
23024,BUMPASS,VA,US1VALS0002,MINERAL 10.2 ESE,3512.0
43502,ARCHBOLD,OH,USC00337080,RIDGEVILLE CORNERS,7223.0
57218,BRANDT,SD,USC00398320,TORONTO 5 NW,9575.0
70633,DEQUINCY,LA,US1LACC0016,DE QUINCY 4.4 SSE,2597.0
81641,MEEKER,CO,USW00094050,MEEKER AP,418.0
61010,BYRON,IL,US1ILOG0015,BYRON 0.6 ENE,1472.0
68354,FAIRMONT,NE,US10fill002,FAIRMONT 0.2 SSE,563.0
11743,HUNTINGTON,NY,US1NYSF0061,CENTERPORT 0.9 SW,2799.0
78840,DEL RIO,TX,USW00022004,DEL RIO WB CITY,1037.0
52060,MAQUOKETA,IA,USC00135132,MAQUOKETA 2 NE,3401.0
78122,LEESVILLE,TX,US1TXGZ0016,LEESVILLE 4.2 NE,9350.0
06801,BETHEL,CT,US1CTFR0043,BETHEL 0.5 E,719.0
97446,HARRISBURG,OR,US1ORLN0030,BROWNSVILLE 5.2 S,7536.0
98538,CURTIS,WA,US1WALW0013,WINLOCK 0.5 W,10551.0
04049,LIMINGTON,ME,USC00174656,LIMINGTON,5048.0
49057,HARTFORD,MI,USC00203652,HARTFORD,552.0
54130,KAUKAUNA,WI,US1WIOG0012,KAUKAUNA 1.5 SW,2313.0
82842,STORY,WY,USS0007E32S,Big Goose,7473.0
57750,INTERIOR,SD,USC00394179,INTERIOR,1501.0
08922,NEW BRUNSWICK,NJ,USC00286053,NEW BRUNSWICK (1),366.0
61554,PEKIN,IL,US1ILTZ0016,PEKIN 1.0 S,906.0
01748,HOPKINTON,MA,US1MAMD0106,HOLLISTON 2.4 W,3948.0
93643,NORTH FORK,CA,USR0000CNFO,NORTH FORK CALIFORNIA,1347.0
12996,WILLSBORO,NY,USC00309495,WILLSBORO 1 N,2136.0
39063,DURANT,MS,USC00222522,DURANT,366.0
65230,ARMSTRONG,MO,US1MOHW0005,GLASGOW 0.4 W,13069.0
49620,BUCKLEY,MI,USC00204399,KINGSLEY 2WSW,10941.0
83118,ETNA,WY,US1WYLN0025,ETNA 2.9 N,5090.0
20776,HARWOOD,MD,US1MDAA0047,HARWOOD 3.1 E,3254.0
54628,FERRYVILLE,WI,US1WICR0003,FERRYVILLE 1.0 SE,1153.0
61312,ARLINGTON,IL,US1ILBU0009,LA MOILLE 0.2 NNE,7682.0
81435,TELLURIDE,CO,USC00058204,TELLURIDE 4WNW,2533.0
15611,ADAMSBURG,PA,US1PAWT0015,JEANNETTE 1.6 S,2958.0
38601,ABBEVILLE,MS,USC00220008,ABBEVILLE,142.0
73544,GOULD,OK,USC00343650,GOULD SCS #1,803.0
47878,SEELYVILLE,IN,US1INVG0016,TERRE HAUTE 7.9 ENE,2458.0
75245,DALLAS,TX,US1TXDA0053,DALLAS 2.7 WNW,2535.0
95556,ORLEANS,CA,USC00046508,ORLEANS,6548.0
27212,BLANCH,NC,USW00013728,DANVILLE RGNL AP,8595.0
82335,WALCOTT,WY,USW00024031,SINCLAIR CAA AP,14977.0
06365,PRESTON,CT,US1CTNL0028,LISBON 2.0 SW,4308.0
61568,TREMONT,IL,US1ILTZ0010,TREMONT 3.6 E,5835.0
15055,LAWRENCE,PA,US1PAAL0003,SOUTH FAYETTE 2 SE,3733.0
47283,WESTPORT,IN,US1INDC0001,GREENSBURG 5.8 S,11547.0
82515,HUDSON,WY,US1WYFM0033,RIVERTON 8.1 SW,7507.0
47841,CLAY CITY,IN,US1INCY0005,CLAY CITY 0.4 SE,439.0
76462,LIPAN,TX,USC00415243,LIPAN 4NW,7908.0
36026,EQUALITY,AL,US1ALCS0003,ALEXANDER CITY 10.0 SW,5818.0
27013,CLEVELAND,NC,USC00317618,SALISBURY 9 WNW,5668.0
57623,DUPREE,SD,USC00392429,DUPREE,861.0
29682,SIX MILE,SC,US1SCPC0018,CENTRAL 5.3 NW,2779.0
41772,VEST,KY,US1KYKT0001,LEBURN 3.8 N,4046.0
08071,PITMAN,NJ,US1NJGL0001,PITMAN 0.1 W,443.0
75409,ANNA,TX,US1TXCLL057,ANNA 0.3 SW,1163.0
82422,EMBLEM,WY,USC00483031,EMBLEM,1423.0
68410,NEBRASKA CITY,NE,US10otoe028,NEBRASKA CITY 1.0 SSW,820.0
29449,HOLLYWOOD,SC,US1SCCR0105,HOLLYWOOD 2.3 W,3781.0
06824,FAIRFIELD,CT,US1CTFR0020,WESTPORT 2.5 ENE,1730.0
48393,WIXOM,MI,US1MIOK0065,WIXOM 1.4 ENE,2218.0
17847,MILTON,PA,USC00365827,MILTON,1855.0
38611,BYHALIA,MS,USC00221262,BYHALIA,803.0
97741,MADRAS,OR,USC00355139,MADRAS,4296.0
97843,IONE,OR,USC00353297,GLENCOE,6760.0
72631,EUREKA SPRINGS,AR,US1ARCR0001,EUREKA SPRINGS 0.5 N,1911.0
71247,HODGE,LA,USC00164735,JONESBORO #2,5269.0
35984,MENTONE,AL,USC00018469,VALLEY HEAD,2601.0
02048,MANSFIELD,MA,USC00194449,MANSFIELD,3434.0
31822,PINE MOUNTAIN,GA,US1GAHR0002,PINE MOUNTAIN 2.8 SE,4067.0
61813,BEMENT,IL,US1ILPT0003,ATWOOD 5.4 NW,7894.0
25030,BOMONT,WV,US1WVCY0001,PROCIOUS 2.4 ESE,10223.0
84751,MILFORD,UT,USC00425654,MILFORD,9413.0
40348,MILLERSBURG,KY,USC00155430,MILLERSBURG,585.0
47339,ECONOMY,IN,US1INWN0011,LOSANTVILLE 2.8 SE,6146.0
62629,CHATHAM,IL,US1ILSG0022,CHATHAM 0.5 N,1254.0
29596,WALLACE,SC,USC00381588,CHERAW,4308.0
71241,FARMERVILLE,LA,USC00163079,FARMERVILLE,895.0
38388,WILDERSVILLE,TN,USC00409752,WILDERSVILLE,707.0
92363,NEEDLES,CA,USR0000AHAV,HAVASU ARIZONA,2708.0
95030,LOS GATOS,CA,US1CASC0005,MONTE SERENO 0.4 SSW,1378.0
20645,ISSUE,MD,USC00441913,COLONIAL BEACH,10528.0
85632,SAN SIMON,AZ,USC00026242,PARADISE,7236.0
29670,PENDLETON,SC,US1SCAN0043,PENDLETON 0.8 NNW,1480.0
51441,DELOIT,IA,USC00132171,DENISON,6158.0
88045,LORDSBURG,NM,US1NMHD0013,LORDSBURG 0.9 NNW,1873.0
92223,BEAUMONT,CA,USC00040606,BEAUMONT,1286.0
77336,HUFFMAN,TX,US1TXHRR215,KINGWOOD 4.4 E,2555.0
27552,MAMERS,NC,US1NCHR0007,LILLINGTON 2.0 W,8132.0
84532,MOAB,UT,US1UTGR0006,MOAB 5.9 SE,12700.0
95940,FEATHER FALLS,CA,USC00046522,OROVILLE 1 N,744.0
39113,MAYERSVILLE,MS,USC00225500,MAYERSVILLE,1452.0
95369,SNELLING,CA,USC00045541,MERCED FALLS,10328.0
28758,MOUNTAIN HOME,NC,US1NCHN0016,HENDERSONVILLE 3.4 NW,430.0
20861,ASHTON,MD,US1MDMG0011,BURTONSVILLE 0.8 W,5103.0
88056,RODEO,NM,USC00297534,RODEO,481.0
74044,MANNFORD,OK,USC00344807,KEYSTONE 3 SSW,3615.0
90704,AVALON,CA,USW00023191,AVALON CATALINA AP,4221.0
45816,BENTON RIDGE,OH,USC00330622,BENTON RIDGE,2911.0
29568,LONGS,SC,US1SCHR0065,LONGS 1.3 NW,3047.0
24416,BUENA VISTA,VA,USC00441159,BUENA VISTA,1185.0
71844,LANEBURG,AR,US1ARNV0002,PRESCOTT 4.4 S,7361.0
81236,NATHROP,CO,US1COCF0054,NATHROP 1.9 WSW,3072.0
72301,WEST MEMPHIS,AR,USC00037712,W MEMPHIS,1756.0
67117,NORTH NEWTON,KS,US1KSHV0016,NORTH NEWTON 0.5 NNW,1383.0
35954,ATTALLA,AL,USC00013151,GADSDEN,9257.0
98926,ELLENSBURG,WA,US1WAKT0002,ELLENSBURG 4.0 SE,1024.0
30559,MINERAL BLUFF,GA,USC00095915,MINERAL BLUFF,1424.0
52237,HOPKINTON,IA,US1IADW0006,HOPKINTON 5.4 WSW,9216.0
82727,ROZET,WY,USC00487907,ROZET,1380.0
22448,DAHLGREN,VA,USW00013760,DAHLGREN WEAPONS LAB,1503.0
14132,SANBORN,NY,US1NYNG0006,SANBORN 0.2 NE,1337.0
78644,LOCKHART,TX,US1TXCLD040,LOCKHART 0.4 SW,1113.0
14013,BASOM,NY,US1NYGN0001,OAKFIELD 6.5 WNW,3340.0
40372,SALVISA,KY,USC00157121,SALVISA LOCK 6,4600.0
18815,CAMPTOWN,PA,US1PABF0009,LE RAYSVILLE 4.9 SSE,8885.0
01951,NEWBURY,MA,US1MAES0019,WEST NEWBURY 1.8 SSE,2969.0
96859,TRIPLER ARMY MEDICAL CENTER,HI,USC00516395,MOANALUA 770,1360.0
93603,BADGER,CA,USR0000CSHQ,SHADEQUARTER CALIFORNIA,4838.0
13806,MERIDALE,NY,US1NYDL0004,DELHI 6.3 NNW,744.0
43119,GALLOWAY,OH,US1OHFR0022,GALLOWAY 3.1 N,3914.0
59058,MOSBY,MT,USC00245872,MOSBY 4 ENE,6678.0
22901,CHARLOTTESVILLE,VA,USC00441598,CHARLOTTESVILLE 1 W,3238.0
05832,EAST BURKE,VT,US1VTCL0020,WEST BURKE 2.2 SE,3195.0
06524,BETHANY,CT,US1CTNH0047,SEYMOUR 1.5 NE,5217.0
49753,LACHINE,MI,USC00208391,UPPER SOUTH DAM,9797.0
95453,LAKEPORT,CA,USC00044701,LAKEPORT,1370.0
38037,GATES,TN,USC00403804,HALLS,3737.0
56270,MORTON,MN,USW00014992,REDWOOD FALLS MUNI AP,7959.0
88253,LAKE ARTHUR,NM,US1NMED0043,ARTESIA 3.5 NNE,11542.0
01331,ATHOL,MA,USC00190257,ATHOL,1320.0
43533,LYONS,OH,USC00334789,LYONS HIGH SCHOOL,1144.0
33459,LAKE HARBOR,FL,USC00080616,BELLE GLADE HRCN GT 4,11267.0
89429,SILVER SPRINGS,NV,US1NVLY0010,SILVER SPRINGS 3.1 WNW,2833.0
44850,NEW HAVEN,OH,US1OHHR0006,PLYMOUTH 1.6 WNW,3332.0
36874,SALEM,AL,USC00093782,GOAT ROCK,8206.0
54821,CABLE,WI,US1WISR0001,HAYWARD 9.2 NNE,10307.0
67761,WALLACE,KS,USC00148535,WALLACE,425.0
55706,BABBITT,MN,USC00210390,BABBITT 2 SE,5119.0
55313,BUFFALO,MN,US1MNWR0029,BUFFALO 0.5 NW,1820.0
67574,ROZEL,KS,USC00147021,ROZEL NEAR,2967.0
03580,FRANCONIA,NH,USC00273160,FRANCONIA,1679.0
40484,STANFORD,KY,USC00157648,STANFORD 3 S,4643.0
30543,GILLSVILLE,GA,USC00093712,GILLSVILLE,1983.0
35966,FLAT ROCK,AL,USC00012945,FLAT ROCK,5650.0
65072,ROCKY MOUNT,MO,US1MOML0003,ROCKY MOUNT 3.0 SE,4303.0
29475,RUFFIN,SC,US1SCCL0005,SMOAKS 0.1 ESE,9897.0
94801,RICHMOND,CA,USC00047414,RICHMOND,4540.0
16845,KARTHAUS,PA,USC00364450,KARTHAUS RIVER,1230.0
79096,WHEELER,TX,USC00419662,WHEELER,2100.0
37180,UNIONVILLE,TN,US1TNBF0029,UNIONVILLE 0.2SW,507.0
39153,RALEIGH,MS,US1MSSM0002,RALEIGH 0.1 N,403.0
37826,NIOTA,TN,US1TNMM0001,NIOTA 0.3 S,884.0
63359,MIDDLETOWN,MO,US1MOMY0002,MIDDLETOWN 3.5 SW,5402.0
84340,WILLARD,UT,USC00420490,BEAR RIVER BAY,11227.0
70443,INDEPENDENCE,LA,USC00168945,TICKFAW 3 ENE,6177.0
35745,ESTILLFORK,AL,USC00017968,SWAIM,3336.0
22843,MOUNT SOLON,VA,USC00445838,MT SOLON,6787.0
16133,JACKSON CENTER,PA,USW00014812,MERCER WB AP,6039.0
28621,ELKIN,NC,USC00312740,ELKIN,2208.0
74431,DEWAR,OK,USC00342485,DEWAR 2 NE,3050.0
24210,ABINGDON,VA,USC00440021,ABINGDON 3S,3514.0
01760,NATICK,MA,USC00195177,NATICK (1),366.0
78125,MINERAL,TX,US1TXBEE012,PAWNEE 6.0 SSW,5204.0
23450,VIRGINIA BEACH,VA,US1VAVBC004,VIRGINIA BEACH 1.2 SW,1776.0
99138,INCHELIUM,WA,USC00453850,HUNTERS,9722.0
81144,MONTE VISTA,CO,US1CORG0017,MONTE VISTA 0.7 W,1851.0
27215,BURLINGTON,NC,US1NCAL0004,BURLINGTON 0.8 SE,537.0
28736,GLENVILLE,NC,USC00314844,LAUREL MTN,4455.0
73841,FORT SUPPLY,OK,USC00348627,SUPPLY 1 E,1825.0
57430,BRITTON,SD,USC00391049,BRITTON,1179.0
79187,AMARILLO,TX,USW00023047,AMARILLO,2968.0
70631,CAMERON,LA,USC00161425,CAMERON,6104.0
81621,BASALT,CO,USC00050514,BASALT,1365.0
55084,TAYLORS FALLS,MN,USC00477464,ST CROIX FALLS,1056.0
64447,MAYSVILLE,MO,USC00232733,FAIRPORT,928.0
64085,RICHMOND,MO,US1MOFSA177,RICHMOND 0.8 ESE,912.0
66942,FORMOSO,KS,US1KSJW0007,FORMOSO 0.3 W,1278.0
35755,LANGSTON,AL,US1ALJC0007,LANGSTON 1.3 NE,2446.0
89431,SPARKS,NV,USC00267693,SPARKS-HUMANE SOCIETY,1025.0
95665,PINE GROVE,CA,US1CAAM0006,PINE GROVE 1.9 SSE,1027.0
59463,MONARCH,MT,USS0010C23S,Stringer Creek,6731.0
75764,GALLATIN,TX,USC00417841,RUSK,9005.0
63013,BEAUFORT,MO,US1MOFR0022,NEW HAVEN 8.3 SSE,11595.0
44088,UNIONVILLE,OH,USC00333094,GENEVA 4 SW,2222.0
73031,DIBBLE,OK,USC00349346,WASHINGTON 6SSW MESONET,10506.0
24104,HUDDLESTON,VA,USC00444148,HUDDLESTON 4 SW,5512.0
26563,CAROLINA,WV,US1WVMA0002,MONONGAH 0.9 ENE,5185.0
32756,MOUNT DORA,FL,US1FLLK0002,EUSTIS 1.2 SE,5688.0
84601,PROVO,UT,USC00427068,PROVO RADIO KAYK,2014.0
08535,MILLSTONE TOWNSHIP,NJ,US1NJMN0052,MILLSTONE TWP 2.9 WNW,4101.0
72829,CENTERVILLE,AR,USC00031328,CENTERVILLE 4 SE,6123.0
59824,CHARLO,MT,US1MTLK0005,CHARLO 4.9 S,5594.0
12471,RIFTON,NY,USC00307274,ROSENDALE 2 E,4276.0
37080,JOELTON,TN,US1TNDV0098,JOELTON 1.6 N,4395.0
04415,BROWNVILLE JUNCTION,ME,USC00170398,BARNARD,10213.0
26610,BIRCH RIVER,WV,USC00460842,BIRCH RIVER 3 WSW,4553.0
45370,SPRING VALLEY,OH,US1OHGR0002,BELLBROOK 2.4 E,5036.0
80809,CASCADE,CO,US1COEP0123,CHIPITA PARK 0.1 SE,3261.0
58570,SOLEN,ND,USC00321052,BREIEN,11580.0
99031,SPANGLE,WA,US1WASP0007,CHENEY 5.0 ESE,10159.0
48125,DEARBORN HEIGHTS,MI,USC00202017,DEARBORN HEIGHTS FD,2020.0
38568,HILHAM,TN,US1TNOV0008,LIVINGSTON 4.1 WSW,4959.0
99301,PASCO,WA,USC00452538,ELTOPIA,7710.0
36052,MATHEWS,AL,USC00016468,PINE LEVEL 4 ESE,11614.0
14131,RANSOMVILLE,NY,USC00309507,WILSON 4 S,5847.0
57454,LANGFORD,SD,US1SDDY0013,PIERPONT 2.8 W,12192.0
68642,HUMPHREY,NE,USC00254052,HUMPHREY 1SE,780.0
18629,MEHOOPANY,PA,US1PAWY0002,TUNKHANNOCK 4.0 NW,4640.0
47122,GEORGETOWN,IN,US1INHR0008,LANESVILLE 0.8 W,5254.0
95944,GOODYEARS BAR,CA,USC00041462,CAMPTONVILLE RS,11566.0
02657,PROVINCETOWN,MA,USC00196681,PROVINCETOWN,1772.0
52544,CENTERVILLE,IA,US1IAAP0007,CENTERVILLE 0.3 NE,500.0
14512,NAPLES,NY,USC00305635,NAPLES,744.0
68649,NORTH BEND,NE,US1NEDD0002,NORTH BEND 0.2 ESE,500.0
72128,POYEN,AR,US1ARGT0004,PRATTSVILLE 0.3 NW,8541.0
01757,MILFORD,MA,US1MAWR0007,MILFORD 0.5 W,1591.0
53014,CHILTON,WI,USC00471568,CHILTON,1767.0
60049,LAKE ZURICH,IL,US1ILLK0016,BUFFALO GROVE 1.5 N,3246.0
24830,ELBERT,WV,USC00463353,GARY,4866.0
14719,CATTARAUGUS,NY,USC00305673,CATTARAUGUS,749.0
98286,SHAW ISLAND,WA,US1WASJ0020,CANOE ISLAND,3021.0
84062,PLEASANT GROVE,UT,USC00428070,S FK RS,3301.0
08723,BRICK,NJ,USC00284700,LAURELTON 1 E,938.0
57466,ONAKA,SD,USC00396282,ONAKA,558.0
51049,QUIMBY,IA,USC00138693,WASHTA,8218.0
91337,RESEDA,CA,USC00040818,BIRMINGHAM GEN HOSP,3327.0
71101,SHREVEPORT,LA,US1LACD0014,SHREVEPORT 3.2 ESE,4363.0
30619,ARNOLDSVILLE,GA,US1GAOG0005,ARNOLDSVILLE 0.4 S,892.0
97350,IDANHA,OR,USC00355221,MARION FORKS FISH HATCHERY,5744.0
13073,GROTON,NY,US1NYTM0007,GROTON 0.6 ESE,643.0
17217,CONCORD,PA,USC00360725,BLAIN 5SW,11362.0
55307,ARLINGTON,MN,US1MNSB0005,ARLINGTON 0.7 SE,342.0
36785,TYLER,AL,USC00014274,JONES BLUFF L&D,8028.0
85532,CLAYPOOL,AZ,USC00025512,MIAMI,3768.0
21875,DELMAR,MD,US1MDWC0004,DELMAR 0.2 NE,544.0
82081,MERIDEN,WY,USC00485260,LA GRANGE,14738.0
98467,UNIVERSITY PLACE,WA,US1WAPR0067,UNIVERSITY PLACE 1.5 S,589.0
88025,BUCKHORN,NM,USC00291252,BUCKHORN,1609.0
59845,HOT SPRINGS,MT,USC00245169,LONEPINE,7664.0
59710,ALDER,MT,USC00240110,ALDER 17 S,4298.0
44272,ROOTSTOWN,OH,USC00336954,RAVENNA PUMP STN,6568.0
75149,MESQUITE,TX,USC00415863,MESQUITE,1196.0
53119,EAGLE,WI,US1WIWK0009,EAGLE 0.5 SW,799.0
07095,WOODBRIDGE,NJ,US1NJMD0043,WOODBRIDGE TWP 1.1 ESE,785.0
52163,PROTIVIN,IA,USC00137855,SPILLVILLE,10269.0
55052,MORRISTOWN,MN,US1MNWC0007,WASECA 7.9 N,4013.0
25504,BARBOURSVILLE,WV,USC00466912,PEA RIDGE PSD,2322.0
14826,COHOCTON,NY,USC00305917,NORTH COHOCTON SCS,3303.0
92323,CIMA,CA,USR0000CMID,MID HILLS CALIFORNIA,8581.0
65201,COLUMBIA,MO,USC00231801,COLUMBIA U OF M,835.0
56279,PENNOCK,MN,USW00014928,WILLMAR AP,7285.0
49261,NAPOLEON,MI,USC00203561,HANOVER,2220.0
97867,NORTH POWDER,OR,USC00351127,BUENA VISTA U,5764.0
49281,SOMERSET,MI,USC00207662,SOMERSET,2770.0
28542,CAMP LEJEUNE,NC,USW00093727,NEW RIVER MCAF,4544.0
53821,PRAIRIE DU CHIEN,WI,USC00476827,PRAIRIE DU CHIEN,1330.0
99611,KENAI,AK,USR0000ASWA,SWANSON RIVER ALASKA,7685.0
93444,NIPOMO,CA,USC00046207,NIPOMO 2 NW,2601.0
50068,DERBY,IA,USC00132195,DERBY,1380.0
98942,SELAH,WA,US1WAYK0003,SELAH 3.6 NW,10278.0
92602,IRVINE,CA,US1CAOR0027,IRVINE 4.1 NNE,2659.0
63530,ATLANTA,MO,USR0000MATL,ATLANTA MISSOURI,4875.0
44601,ALLIANCE,OH,USC00330102,ALLIANCE,2722.0
55713,BUHL,MN,US1MNSL0015,CHISHOLM 0.4 WSW,9558.0
58759,MAX,ND,USC00325638,MAX,1277.0
22833,LACEY SPRING,VA,US1VAPG0001,SHENANDOAH 1.4 N,9933.0
62217,BALDWIN,IL,USC00117157,RED BUD 5 SE,7748.0
52573,MOUNT STERLING,IA,US1IAVB0004,FARMINGTON 3.5 W,10762.0
07933,GILLETTE,NJ,US1NJMS0002,LONG HILL TWP 1.2 SSE,3820.0
25047,CLOTHIER,WV,USC00465353,LOGAN,8471.0
20688,SOLOMONS,MD,USC00188405,SOLOMONS,1165.0
88314,BENT,NM,USC00295657,MESCALERO,9012.0
33849,KATHLEEN,FL,US1FLPK0003,LAKELAND 3.8 NW,4027.0
53808,DICKEYVILLE,WI,USC00132364,DUBUQUE L&D 11,10009.0
50006,ALDEN,IA,US1IAHD0002,ALDEN 0.1 NNE,838.0
18241,NUREMBERG,PA,USC00369990,ZION GROVE,4543.0
48656,SAINT HELEN,MI,US1MIRS0002,ST. HELEN 1.0 SSW,1657.0
77982,PORT O CONNOR,TX,USC00417186,PORT O'CONNOR,2796.0
63638,ELLINGTON,MO,USC00232547,ELLINGTON,366.0
24092,GLADE HILL,VA,US1VAFR0004,ROCKY MOUNT 3.1 SE,7382.0
21626,CRAPO,MD,USC00180915,BLACKWATER REFUGE,12644.0
31032,GRAY,GA,US1GAJN0002,GRAY 7.5 WSW,12345.0
20897,SUBURB MARYLAND FAC,MD,US1MDMG0047,WHEATON-GLENMONT 1.5 NNE,1138.0
08808,BROADWAY,NJ,US1NJWR0015,FRANKLIN TWP 2.3 ESE,3575.0
59927,OLNEY,MT,USC00247925,STRYKER,4868.0
54666,WARRENS,WI,US1WIMN0006,TOMAH 5.0 N,7633.0
75779,NECHES,TX,US1TXAN0003,PALESTINE 11.7 ENE,4741.0
14410,ADAMS BASIN,NY,US1NYMR0042,SPENCERPORT 0.8 NE,5170.0
56477,SEBEKA,MN,US1MNWD0980,MENAHGA 2.1 WSW,14798.0
83801,ATHOL,ID,US1IDKT0003,ATHOL 1.5 ENE,1231.0
29657,LIBERTY,SC,US1SCPC0011,LIBERTY 1.5 SE,1875.0
95552,MAD RIVER,CA,US1CATY0006,MAD RIVER 7.4 SE,7727.0
95445,GUALALA,CA,US1CAMD0034,GUALALA 0.8 NW,5666.0
27964,POINT HARBOR,NC,US1NCCC0010,POINT HARBOR 0.2 WSW,288.0
08221,LINWOOD,NJ,US1NJAT0009,LINWOOD 0.7 SSW,786.0
34487,HOMOSASSA,FL,US1FLCT0013,HOMOSASSA 4.1 E,5817.0
45381,WEST ALEXANDRIA,OH,US1OHPB0006,WEST ALEXANDRIA 0.5 W,1170.0
47933,CRAWFORDSVILLE,IN,US1INMY0013,CRAWFORDSVILLE 0.4 SW,972.0
50450,LAKE MILLS,IA,USC00134557,LAKE MILLS,946.0
67579,STERLING,KS,USC00147796,STERLING,1739.0
29925,HILTON HEAD ISLAND,SC,US1SCBF0044,HILTON HEAD ISLAND 1.4 S,1844.0
72043,DIAZ,AR,USC00035186,NEWPORT,4550.0
63824,BLODGETT,MO,US1MOFSA201,LAMBERT 0.8 ESE,10323.0
98547,GRAYLAND,WA,USC00453320,GRAYLAND,1295.0
66044,LAWRENCE,KS,USC00144559,LAWRENCE,224.0
30256,MEANSVILLE,GA,US1GAPK0002,ZEBULON 0.3 WNW,8108.0
84755,MOUNT CARMEL,UT,USC00426534,ORDERVILLE,12154.0
31627,CECIL,GA,USC00091727,CECIL,664.0
79518,GIRARD,TX,USC00414570,JAYTON,14269.0
68036,LINWOOD,NE,USC00257640,SCHUYLER,11880.0
19526,HAMBURG,PA,USC00363632,HAMBURG,957.0
53541,GRATIOT,WI,USC00473250,GRATIOT,2869.0
14754,LITTLE GENESEE,NY,USC00368066,SHINGLEHOUSE,7072.0
67485,TIPTON,KS,US1KSMC0007,HUNTER 2.1 NNW,9007.0
59070,ROBERTS,MT,USC00247128,ROBERTS 1 W,2925.0
63787,ZALMA,MO,USC00239178,ZALMA 4 E,6421.0
60178,SYCAMORE,IL,USC00118452,SYCAMORE,664.0
95420,CASPAR,CA,US1CAMD0026,CASPAR 1.4 ESE,782.0
99111,COLFAX,WA,US1WAWM0001,COLFAX 0.4 ESE,7389.0
59743,MELROSE,MT,USC00245590,MELROSE,3390.0
82516,KINNEAR,WY,USC00487115,PAVILLION,10708.0
46052,LEBANON,IN,USC00124908,LEBANON WTR WKS,466.0
48159,MAYBEE,MI,USC00206851,RAWSONVILLE,827.0
84649,OAK CITY,UT,US1UTML0001,OAK CITY 0.3 SSE,4645.0
39440,LAUREL,MS,US1MSJN0002,LAUREL 0.7 SE,558.0
87032,MCINTOSH,NM,USC00293060,ESTANCIA 4N,2912.0
85531,CENTRAL,AZ,US1AZGH0003,CENTRAL .5 NE,1898.0
84742,KANARRAVILLE,UT,USW00053013,CEDAR CITY 18 SSE,9423.0
54423,CUSTER,WI,US1WIPT0010,CUSTER 4.3 N,7888.0
68309,BARNESTON,NE,USC00250520,BARNESTON,1067.0
68433,SALEM,NE,USC00257540,SALEM,1504.0
32240,JACKSONVILLE BEACH,FL,USC00084366,JACKSONVILLE BEACH,386.0
62075,NOKOMIS,IL,US1ILMY0001,NOKOMIS 4.5 NW,7687.0
71343,JONESVILLE,LA,USC00169127,TRINITY,1942.0
30739,ROCK SPRING,GA,US1GAWA0004,LA FAYETTE 2.9 NE,7711.0
05047,HARTFORD,VT,USC00439691,WHITE RIVER JUNCTION,265.0
53244,MILWAUKEE,WI,USW00014839,MILWAUKEE MITCHELL AP,1728.0
49612,ALDEN,MI,US1MIKK0002,RAPID CITY 2.2 NW,5773.0
19397,SOUTHEASTERN,PA,US1PADL0005,RADNOR TOWNSHIP 2.1 N,3499.0
49779,ROGERS CITY,MI,US1MIPI0001,ROGERS CITY 0.2 WSW,292.0
38138,GERMANTOWN,TN,US1TNSH0004,GERMANTOWN 0.2 WNW,1196.0
66777,TORONTO,KS,USC00148186,TORONTO,1417.0
72011,BAUXITE,AR,US1ARSL0028,BENTON 1.8 SW,7621.0
56522,CAMPBELL,MN,US1MNWK0002,CAMPBELL 0.2 SSW,760.0
75662,KILGORE,TX,US1TXRS0011,KILGORE 1.7 SSW,2233.0
45648,LUCASVILLE,OH,USC00334770,LUCASVILLE,1672.0
12769,PHILLIPSPORT,NY,US1NYSV0008,WURTSBORO 0.2 SSW,7364.0
39455,LUMBERTON,MS,USC00225318,LUMBERTON 2 N,3700.0
64469,MAYSVILLE,MO,US1MOFSA063,MAYSVILLE 0.4 SSE,203.0
67673,WALDO,KS,US1KSRS0015,WALDO 0.2 SSE,555.0
40461,PAINT LICK,KY,US1KYGD0002,PAINT LICK 2.4 SSE,3771.0
16424,LINESVILLE,PA,USC00365050,LINESVILLE 1 S,625.0
12405,ACRA,NY,USC00303038,FREEHOLD 2 NW,4506.0
70422,AMITE,LA,USC00160205,AMITE,2702.0
18977,WASHINGTON CROSSING,PA,US1NJMC0023,HOPEWELL TWP 4.6 SW,2435.0
61831,COLLISON,IL,US1ILVR0015,DANVILLE 8.6 NNW,8888.0
47601,BOONVILLE,IN,USC00120852,BOONVILLE 1S,1123.0
50134,KELLEY,IA,USC00130205,AMES 3 SW,5617.0
39160,SALLIS,MS,USC00226294,NEWPORT,9235.0
60915,BRADLEY,IL,USC00114603,KANKAKEE METRO WASTEWATER,3035.0
12073,GALLUPVILLE,NY,USC00300655,BERNE 2 NW,3715.0
96781,PAPAIKOU,HI,US1HIHI0020,PAPAIKOU 0.4 SSE,372.0
71748,IVAN,AR,US1ARDL0001,FORDYCE 6.6 NNW,2024.0
08310,BUENA,NJ,US1NJGL0005,FRANKLIN TWP 4.4 SE,4584.0
88351,TINNIE,NM,USC00296803,PICACHO,8895.0
62901,CARBONDALE,IL,US1ILJK0002,CARBONDALE 0.8 NNE,1701.0
83446,SPENCER,ID,USC00101313,BURNSIDE,3123.0
64679,SPICKARD,MO,US1MOGY0005,SPICKARD 4.9 WSW,7959.0
33947,ROTONDA WEST,FL,US1FLCH0006,ROTONDA 0.8 WNW,3923.0
81521,FRUITA,CO,USC00053146,FRUITA,936.0
58032,FORMAN,ND,USC00323117,FORMAN 5 SSE,7890.0
61014,CHADWICK,IL,US1ILCR0009,MOUNT CARROLL 5.0 SSE,4604.0
39817,BAINBRIDGE,GA,USC00090581,BAINBRIDGE,2249.0
78140,NIXON,TX,USC00416368,NIXON,2636.0
04040,HARRISON,ME,US1MECM0110,HARRISON 0.3 NW,1189.0
47834,BRAZIL,IN,USC00120922,BRAZIL,1084.0
54422,CURTISS,WI,USC00471931,CURTISS,259.0
26722,GREEN SPRING,WV,US1WVHM0001,SPRINGFIELD 2.3 ESE,5887.0
37722,COSBY,TN,USC00402074,COSBY,4224.0
58711,ANTLER,ND,USC00320263,ANTLER,3912.0
48060,PORT HURON,MI,USC00206680,PORT HURON,557.0
37853,ROCKFORD,TN,USC00400825,BLOUNT CO EXP STN,3791.0
76824,BEND,TX,USR0000TCOL,COLORADO BEND TEXAS,4301.0
93424,AVILA BEACH,CA,USC00040403,AVILA BEACH,2843.0
59870,STEVENSVILLE,MT,USR0000MSTE,STEVI MONTANA,1607.0
21659,RHODESDALE,MD,US1MDDR0002,VIENNA 3.4 N,7061.0
12827,FORT ANN,NY,USC00307818,SMITHS BASIN,6475.0
74856,MILL CREEK,OK,USC00348900,TISHOMINGO 6N MESONET,14979.0
80820,GUFFEY,CO,USC00053654,GUFFEY,286.0
51550,MAGNOLIA,IA,US1IAHR0005,LOGAN 6.5 NW,3789.0
84628,EUREKA,UT,USC00422625,EUREKA,4548.0
32182,ORANGE SPRINGS,FL,USC00086620,ORANGE SPRINGS 1 E,2257.0
04956,NEW VINEYARD,ME,US1MEFR0018,FREEMAN TWP 1.0 SSE,11602.0
68359,FRIEND,NE,US10sali023,FRIEND 0.2 NNE,803.0
14758,NIOBE,NY,USC00368364,SPRING CREEK 5 NE,10927.0
20610,BARSTOW,MD,USC00187325,PRINCE FREDERICK 1 N,3637.0
23845,EBONY,VA,US1VABR0002,BRACEY 6.0 ESE,4525.0
40339,KEENE,KY,USC00154369,KEENE 1 WSW,2821.0
62323,CHAMBERSBURG,IL,USC00113717,GRIGGSVILLE,9461.0
92675,SAN JUAN CAPISTRANO,CA,USR0000CBCN,BELL CANYON CALIFORNIA,2949.0
16633,DEFIANCE,PA,USC00367846,SAXTON 1W,6673.0
12983,SARANAC LAKE,NY,USC00307472,SARANAC LAKE,1501.0
62343,HULL,IL,USC00237578,SAVERTON LOCK AND DAM 22,8267.0
51632,CLARINDA,IA,USC00131533,CLARINDA,1103.0
66544,VERMILLION,KS,US1KSNM0012,BAILEYVILLE 4.9 S,9684.0
33920,ALVA,FL,US1FLLE0006,BUCKINGHAM 1.7 SE,11799.0
45841,JENERA,OH,US1OHHC0010,JENERA 1.6 SE,1314.0
06336,GILMAN,CT,US1CTNL0010,NORWICH 2.5 NNE,3638.0
28383,ROWLAND,NC,US1SCDL0004,DILLON 3.8 NW,13499.0
61318,COMPTON,IL,USC00111835,COMPTON 1 NW,2459.0
27921,CAMDEN,NC,USC00312719,ELIZABETH CITY,4195.0
19930,BETHANY BEACH,DE,US1DESS0042,OCEAN VIEW 0.7 NW,4355.0
57069,VERMILLION,SD,US1SDCY0009,VERMILLION 0.6 SE,566.0
61942,NEWMAN,IL,USC00116134,NEWMAN 3W,4826.0
24352,LAUREL FORK,VA,US1VAPR0002,MEADOWS OF DAN 4.5 SW,6506.0
71744,HAMPTON,AR,USC00033098,HAMPTON,721.0
91381,STEVENSON RANCH,CA,USC00046161,NEWHALL 5NW,2982.0
04963,OAKLAND,ME,USC00179151,WATERVILLE TRTMT PLT,5087.0
16733,HAZEL HURST,PA,USC00361534,CLERMONT 8 SW,5362.0
38821,AMORY,MS,USC00220173,AMORY L&D A,3605.0
08251,VILLAS,NJ,USW00013775,WILDWOOD NAS,3182.0
76878,SANTA ANNA,TX,US1TXCLM001,SANTA ANNA 0.5 E,866.0
78634,HUTTO,TX,US1TXWM0131,HUTTO 0.6 SSW,762.0
97346,GATES,OR,US1ORLN0026,GATES 1.1 SE,1147.0
57057,RUTLAND,SD,USC00399042,WENTWORTH 2.5 WNW,7707.0
31631,FARGO,GA,USC00093312,FARGO,1241.0
71438,HINESTON,LA,USC00164260,HINESTON 4 NNE,4812.0
97820,CANYON CITY,OR,USC00350574,BEAR VALLEY,1819.0
32617,ANTHONY,FL,US1FLMR0057,OCALA 4.6 N,3294.0
60013,CARY,IL,US1ILMCH081,CARY 0.2 SE,928.0
47951,KENTLAND,IN,US1INNW0003,KENTLAND 0.3 ENE,483.0
63846,ESSEX,MO,US1MOFSA207,BLOOMFIELD 2.9 S,8126.0
76458,JACKSBORO,TX,USC00414517,JACKSBORO,2320.0
07846,JOHNSONBURG,NJ,US1NJWR0037,BLAIRSTOWN TWP 2.2 ESE,3581.0
01133,SPRINGFIELD,MA,USC00198046,SPRINGFIELD,553.0
20186,WARRENTON,VA,USC00448888,WARRENTON 3 SE,3746.0
50231,RANDALL,IA,USC00137984,STORY CITY,5189.0
37149,READYVILLE,TN,US1TNRD0012,MURFREESBORO 8.7 E,8301.0
38926,ELLIOTT,MS,USC00222722,ELLIOTT 4 NW,2140.0
80477,STEAMBOAT SPRINGS,CO,US1CORT0025,STEAMBOAT SPRINGS 1 SE,517.0
95606,BROOKS,CA,USC00041112,BROOKS FARNHAM RCH,4524.0
39735,ACKERMAN,MS,USC00220039,ACKERMAN,360.0
68752,MEADOW GROVE,NE,USC00255370,MEADOW GROVE,1245.0
95041,MOUNT HERMON,CA,US1CASZ0012,SCOTTS VALLEY 1.4 W,1592.0
06412,CHESTER,CT,US1CTMD0019,IVORYTON 0.9 WSW,6378.0
72022,BRYANT,AR,US1ARSL0034,BRYANT 1.0 NE,1748.0
35160,TALLADEGA,AL,USR0000ATAL,TALLADEGA ALABAMA,1485.0
28543,TARAWA TERRACE,NC,US1NCON0044,JACKSONVILLE 2.0 E,3212.0
30084,TUCKER,GA,US1GADK0051,TUCKER 0.6 NNW,1539.0
82723,OSAGE,WY,USC00486935,OSAGE,216.0
85931,FOREST LAKES,AZ,USS0011R10S,Promontory,10735.0
12040,CHERRY PLAIN,NY,USC00301434,CHERRYPLAIN 2,3389.0
37753,HARTFORD,TN,USC00403931,HARTFORD,1170.0
63030,FLETCHER,MO,USC00237122,RICHWOODS,9110.0
65669,HIGHLANDVILLE,MO,US1MOCR0019,NIXA 6.4 S,3680.0
52641,MOUNT PLEASANT,IA,USC00135796,MT PLEASANT 1 SSW,2432.0
76436,CARLTON,TX,US1TXCMN002,CARLTON 5.0 WSW,11853.0
23847,EMPORIA,VA,USC00442790,EMPORIA 1 WNW,2806.0
13473,TURIN,NY,USC00308633,TURIN,1394.0
85541,PAYSON,AZ,US1AZGL0005,STAR VALLEY 2.1 NE,9791.0
13066,FAYETTEVILLE,NY,USC00302780,FAYETTEVILLE,2007.0
03110,BEDFORD,NH,USW00014710,MANCHESTER AP,5359.0
91916,DESCANSO,CA,US1CASD0051,DESCANSO 3.7 NNW,824.0
18958,SALFORDVILLE,PA,US1PAMT0087,HARLEYSVILLE 3.9 WNW,2672.0
74536,CLAYTON,OK,USC00341855,CLAYTON,366.0
93526,INDEPENDENCE,CA,USR0000COCR,OAK CREEK CALIFORNIA,2217.0
49970,WATTON,MI,USC00208703,WATTON 1 E,1330.0
19560,TEMPLE,PA,US1PABR0017,READING 3.5 NNW,2069.0
93030,OXNARD,CA,USC00046569,OXNARD,1023.0
61528,EDWARDS,IL,US1ILPR0013,PEORIA 3.5 W,3065.0
97054,DEER ISLAND,OR,USC00353340,GOBLE 3 SW,5493.0
48025,FRANKLIN,MI,US1MIOK0047,BLOOMFIELD TOWNSHIP 3.1 SW,4172.0
22432,BURGESS,VA,USC00441202,BURGESS 1 ESE,693.0
18931,LAHASKA,PA,USC00284653,LAMBERTVILLE RIVER,7406.0
43031,JOHNSTOWN,OH,US1OHLC0007,JOHNSTOWN 2.3 E,3066.0
43027,HOMER,OH,USC00338565,UTICA 4 WSW,1763.0
25846,GLEN JEAN,WV,USC00466591,OAK HILL,4899.0
49440,MUSKEGON,MI,US1MIMG0001,MUSKEGON 2.5 WSW,4054.0
98329,GIG HARBOR,WA,USC00459021,WAUNA 3 W,609.0
68323,BURCHARD,NE,USC00251260,BURCHARD,1249.0
51355,OKOBOJI,IA,USC00137859,SPIRIT LAKE,3756.0
43311,BELLEFONTAINE,OH,USC00330563,BELLEFONTAINE,2260.0
25270,REEDY,WV,USC00465323,LIVERPOOL,9646.0
89005,BOULDER CITY,NV,USC00261071,BOULDER CITY,8832.0
99026,NINE MILE FALLS,WA,US1WASP0043,SPOKANE 14.6 NW,2834.0
60932,EAST LYNN,IL,US1ILVR0005,RANKIN 4.9 E,1122.0
75169,WILLS POINT,TX,USC00419800,WILLS PT,1420.0
77616,FRED,TX,US1TXTR0012,SPURGER 6.2 S,3576.0
45110,BUFORD,OH,US1OHBR0002,MOUNT ORAB 0.3 SE,8455.0
28755,MICAVILLE,NC,US1NCML0014,SPRUCE PINE 4.5 WSW,5618.0
44140,BAY VILLAGE,OH,US1OHCY0006,WESTLAKE 0.7 N,1906.0
21610,BETTERTON,MD,USC00181980,COLEMAN 3 WNW,5560.0
67557,MACKSVILLE,KS,US1KSSF0012,MACKSVILLE 0.3 WNW,1467.0
20141,ROUND HILL,VA,US1VALD0001,ROUND HILL 0.2 E,520.0
26201,BUCKHANNON,WV,USC00461220,BUCKHANNON,33.0
15618,AVONMORE,PA,USC00367782,SALINA 3 W,6510.0
71831,COLUMBUS,AR,US1ARHM0002,COLUMBUS 2.1 NNE,6452.0
30517,BRASELTON,GA,US1GAJC0017,BRASELTON 0.7 NW,1831.0
33547,LITHIA,FL,US1FLHB0020,BLOOMINGDALE 5.5 SE,2489.0
25502,APPLE GROVE,WV,USC00464200,HOGSETT RC BYRD DAM,2131.0
33780,PINELLAS PARK,FL,US1FLPN0007,PINELLAS PARK 0.2 S,781.0
29916,EARLY BRANCH,SC,USC00389469,YEMASSEE 1 N,7671.0
25606,ACCOVILLE,WV,USC00465600,MAN,5109.0
72718,CAVE SPRINGS,AR,US1ARBT0045,BENTONVILLE 6.6 SSW,2981.0
68871,ROCKVILLE,NE,US10shem003,ROCKVILLE 2.2 NW,4377.0
95935,DOBBINS,CA,USC00042456,DOBBINS 1 S,293.0
56473,PILLAGER,MN,US1MNCS0001,PILLAGER 5.1 N,9183.0
57331,DIMOCK,SD,US1SDHT0007,PARKSTON 0.1 NW,8387.0
76540,KILLEEN,TX,USC00414791,KILLEEN,3116.0
68301,ADAMS,NE,USC00250001,ADAMS,212.0
99016,GREENACRES,WA,US1WASP0033,SPOKANE VALLEY 4.2 ESE,2390.0
08067,PEDRICKTOWN,NJ,USC00288685,SWEDESBORO 5 NW,5923.0
49728,ECKERMAN,MI,USC00203982,HULBERT 2 S,9686.0
97110,CANNON BEACH,OR,USC00358508,TILLAMOOK ROCK,3906.0
72112,NEWPORT,AR,USC00035187,NEWPORT II,3996.0
02130,JAMAICA PLAIN,MA,USC00193890,JAMAICA PLAIN,1195.0
78838,CONCAN,TX,US1TXUV0003,LEAKEY 14.5 S,5572.0
62906,ANNA,IL,USC00110187,ANNA 2 NNE,2429.0
81222,COALDALE,CO,USC00051693,COALDALE 1 NW,3260.0
52619,ARGYLE,IA,US1IALE0004,MONTROSE 3.7 W,6436.0
40353,MOUNT STERLING,KY,USC00155640,MT STERLING,616.0
81320,CAHONE,CO,US1CODR0002,DOVE CREEK 7.2 SE,3779.0
67853,INGALLS,KS,US1KSGY0033,INGALLS 2.4 WSW,3582.0
82331,SARATOGA,WY,US1WYCR0011,SARATOGA 0.3 ESE (USDA SERVICE,238.0
98620,GOLDENDALE,WA,US1WAKL0003,GOLDENDALE 3.3 ENE,679.0
20818,CABIN JOHN,MD,USC00183645,GLEN ECHO,939.0
43560,SYLVANIA,OH,USC00338180,SYLVANIA,744.0
80805,BETHUNE,CO,USC00050686,BETHUNE,1145.0
37874,SWEETWATER,TN,USC00407683,RIDDLES STORE,6888.0
66964,REPUBLIC,KS,US1KSRP0009,REPUBLIC 1.0 NNW,2127.0
18828,LAWTON,PA,USC00367694,RUSH,907.0
85933,OVERGAARD,AZ,US1AZNV0024,OVERGAARD 1.4 ENE,5410.0
84726,ESCALANTE,UT,USC00422592,ESCALANTE,248.0
04985,WEST FORKS,ME,USC00179382,WEST FORKS,5473.0
63073,SAINT ALBANS,MO,USC00236233,OAKFIELD,6174.0
81520,CLIFTON,CO,US1COME0091,GRAND JUNCTION 5.1 ESE,660.0
01378,WARWICK,MA,USC00198573,TULLY LAKE,9751.0
04424,DANFORTH,ME,USC00171833,DANFORTH,163.0
35959,CEDAR BLUFF,AL,USC00011490,CENTRE,11686.0
59250,OPHEIM,MT,USC00243599,GLENTANA,5589.0
39841,DAMASCUS,GA,US1GAML0001,DAMASCUS 7.2 ESE,6601.0
46935,GRASS CREEK,IN,US1INCS0006,LUCERNE 3.4 NE,5957.0
17731,EAGLES MERE,PA,USC00362343,EAGLES MERE,275.0
62630,CHESTERFIELD,IL,US1ILMP0011,MEDORA 2.9 NE,6166.0
42759,MARROWBONE,KY,USC00155165,MARROWBONE,4215.0
32462,VERNON,FL,USC00089206,VERNON,1764.0
39322,BUCKATUNNA,MS,USC00221174,BUCKATUNNA 1 NE,1962.0
98397,LONGMIRE,WA,USC00454764,LONGMIRE RAINIER NPS,176.0
28337,ELIZABETHTOWN,NC,USC00312732,ELIZABETHTOWN,810.0
79359,SEAGRAVES,TX,USC00418154,SEAGRAVES,1275.0
56601,BEMIDJI,MN,US1MNBM0009,BEMIDJI 2.9 E,4205.0
04764,OXBOW,ME,USC00175030,MASARDIS,13764.0
22974,TROY,VA,US1VAFV0002,PALMYRA 4.3 N,2246.0
97906,HARPER,OR,USC00353666,HARPER,2012.0
48470,RUTH,MI,USC00200420,BAD AXE 8 E,12488.0
23482,WARDTOWN,VA,USC00445931,NASSAWADOX,3712.0
12734,FERNDALE,NY,USC00304731,LIBERTY 1 NE,3619.0
10451,BRONX,NY,USC00300961,BRONX,1768.0
22827,ELKTON,VA,USC00447740,SHENANDOAH,8395.0
02152,WINTHROP,MA,US1MASF0002,WINTHROP 0.2 N,1578.0
96009,BIEBER,CA,USC00040731,BIEBER,7067.0
19012,CHELTENHAM,PA,US1PAMT0081,CHELTENHAM 0.2 S,1033.0
85621,NOGALES,AZ,US1AZSC0003,NOGALES 8.9 NNE,2411.0
65713,NIANGUA,MO,US1MOWB0018,MARSHFIELD 3.3 ENE,4189.0
28763,OTTO,NC,US1NCMC0025,OTTO 1.1 NW,2111.0
55006,BRAHAM,MN,US1MNIS0008,BRAHAM 0.7 ENE,1009.0
58532,DRISCOLL,ND,USC00328366,STEELE 4N,14692.0
35034,BRENT,AL,USR0000AOKM,OAKMULGEE ALABAMA,1912.0
65589,YUKON,MO,US1MOTX0012,HOUSTON 6.3 ESE,2597.0
71230,CROWVILLE,LA,USC00162217,CROWVILLE,327.0
06450,MERIDEN,CT,USW00054788,MERIDEN MARKHAM MUNI AP,3874.0
33441,DEERFIELD BEACH,FL,US1FLBW0083,DEERFIELD BEACH 1.4 S,1924.0
14086,LANCASTER,NY,US1NYER0132,LANCASTER 1.9 SSE,2845.0
66414,CARBONDALE,KS,USC00141294,CARBONDALE,941.0
35756,MADISON,AL,USC00014976,MADISON,915.0
76941,MERTZON,TX,USC00415859,MERTZON,808.0
74337,CHOUTEAU,OK,USC00347309,PRYOR,14358.0
34606,SPRING HILL,FL,US1FLHN0007,SPRING HILL 3.3 SE,3659.0
30728,LA FAYETTE,GA,US1GAWA0002,LA FAYETTE 8.0 ESE,3155.0
67002,ANDOVER,KS,US1KSBU0032,ANDOVER 1.6 N,2664.0
49862,MUNISING,MI,USC00208851,WETMORE,2765.0
15106,CARNEGIE,PA,US1PAAL0031,SCOTT TOWNSHIP 1.3 NW,1436.0
97902,AROCK,OR,USC00352135,DANNER,12130.0
24586,RINGGOLD,VA,US1VAPT0008,RINGGOLD 0.3 N,1371.0
99742,GAMBELL,AK,USW00026703,GAMBELL,4734.0
93440,LOS ALAMOS,CA,USC00045107,LOS ALAMOS,4049.0
36027,EUFAULA,AL,US1ALBR0002,EUFAULA 1.0 SSE,837.0
15847,KNOX DALE,PA,US1PAJF0003,BROOKVILLE 5.3 SSW,6149.0
76652,KOPPERL,TX,US1TXBSQ002,KOPPERL 5.2 WNW,466.0
24217,BEE,VA,USC00442269,DAVENPORT 2 NE,8971.0
31550,MANOR,GA,USC00095492,MANOR,1909.0
99403,CLARKSTON,WA,USC00450145,ALPOWA RCH,6485.0
35460,EPES,AL,USC00014798,LIVINGSTON,13753.0
77434,EAGLE LAKE,TX,USC00411325,CALHOUN,5347.0
80428,CLARK,CO,US1CORT0022,CLARK 0.7 NW,1152.0
83654,NEW MEADOWS,ID,USS0016D08S,West Branch,6387.0
59635,EAST HELENA,MT,US1MTJF0003,MONTANA CITY 2.3 SE,9654.0
44401,BERLIN CENTER,OH,USC00330637,BERLIN CTR 2 SW,4998.0
25429,MARTINSBURG,WV,USC00467342,RANSON 4NW,1775.0
75421,BROOKSTON,TX,USC00416794,PARIS,12562.0
31045,JEWELL,GA,USC00099141,WARRENTON,12880.0
28338,ELLERBE,NC,US1NCRC0008,NORMAN 0.4 SSE,11109.0
42040,FARMINGTON,KY,US1KYGV0002,SEDALIA 5.1 SE,9118.0
93531,KEENE,CA,USC00040503,BEAR VALLEY FD,7458.0
58549,KINTYRE,ND,USC00326255,NAPOLEON,14659.0
82414,CODY,WY,USC00481845,CODY 1 SSE,744.0
10931,HILLBURN,NY,USC00308322,SUFFERN,1338.0
33904,CAPE CORAL,FL,US1FLLE0047,CAPE CORAL 4.0 SE,5387.0
44430,LEAVITTSBURG,OH,USC00336554,PHALANX STN,5129.0
95460,MENDOCINO,CA,US1CAMD0033,MENDOCINO 2.7 NNE,6085.0
23922,BURKEVILLE,VA,USC00442080,CREWE,5189.0
23843,DOLPHIN,VA,USC00444768,LAWRENCEVILLE 3 E,6550.0
35461,ETHELSVILLE,AL,US1MSLW0005,COLUMBUS 5.3 ESE,12390.0
30571,SAUTEE NACOOCHEE,GA,USC00098935,UNICOI SP,2415.0
55082,STILLWATER,MN,US1MNWG0009,STILLWATER 0.2 E,757.0
16218,COWANSVILLE,PA,USC00362363,EAST BRADY,6334.0
74632,BRAMAN,OK,USC00341075,BRAMAN,492.0
49012,AUGUSTA,MI,US1MIKZ0012,GALESBURG 1.3 N,5909.0
67741,KANORADO,KS,US1KSSH0009,GOODLAND 12 WSW,9592.0
92008,CARLSBAD,CA,US1CASD0062,CARLSBAD 3.8SE,1321.0
17831,HUMMELS WHARF,PA,USW00014770,SELINSGROVE PENN VLY AP,3064.0
76842,FREDONIA,TX,US1TXSS0009,FREDONIA 3.7 NE,5954.0
08505,BORDENTOWN,NJ,US1NJBT0007,CHESTERFIELD TWP 0.4 ESE,5887.0
75636,CASON,TX,USR0000TLND,LINDEN TEXAS,3462.0
28103,MARSHVILLE,NC,USC00315771,MONROE 2 SE,14894.0
44809,BASCOM,OH,US1OHSN0002,BASCOM 0.3 ESE,169.0
97010,BRIDAL VEIL,OR,USC00455670,MOUNT PLEASANT,2423.0
76301,WICHITA FALLS,TX,US1TXWT0018,WICHITA FALLS 0.7 NW,2145.0
74830,BOWLEGS,OK,USC00340990,BOWLEGS 3NE MESONET,4369.0
29630,CENTRAL,SC,US1SCPC0035,CLEMSON 1.3 ENE,3349.0
44612,BOLIVAR,OH,USC00330823,BOLIVAR DAM,1410.0
44846,MILAN,OH,US1OHER0014,MILAN 0.4 ENE,1351.0
47326,BRYANT,IN,US1INJY0009,BRYANT 1.1 SSW,1513.0
32767,PAISLEY,FL,USC00080070,ALEXANDER SPRINGS 3 SE,7840.0
78114,FLORESVILLE,TX,US1TXWO0029,FLORESVILLE 0.7 S,762.0
13639,FINE,NY,USC00307944,SOUTH EDWARDS 1 E,5881.0
54559,SAXON,WI,USC00473332,SAXON 1WSW,2136.0
14432,CLIFTON SPRINGS,NY,US1NYON0004,PHELPS 4.4 NW,6359.0
57532,FORT PIERRE,SD,US1SDST0006,FORT PIERRE 0.5 SE,287.0
22932,CROZET,VA,USC00442138,CROZET 2 N,2733.0
55777,VIRGINIA,MN,USC00218543,VIRGINIA,3920.0
14051,EAST AMHERST,NY,US1NYER0123,CLARENCE CENTER 5.2 WNW,1852.0
59832,DRUMMOND,MT,USC00242511,DRUMMOND FAA AP,4800.0
96107,COLEVILLE,CA,USC00041911,COLEVILLE 4 SE,5317.0
01950,NEWBURYPORT,MA,US1MAES0024,NEWBURYPORT 0.8 SW,1665.0
75760,CUSHING,TX,USC00412559,DOUGLASS NEAR,11822.0
58544,HAZELTON,ND,USC00324083,HAZELTON 4NW,7456.0
85342,MORRISTOWN,AZ,USC00021353,CASTLE HOT SPRINGS,7131.0
95545,HONEYDEW,CA,USC00044074,HONEYDEW 1 SW,1401.0
22712,BEALETON,VA,US1VAFQ0004,REMINGTON 4.0 ENE,1683.0
15728,CLYMER,PA,USC00361563,CLYMER,2103.0
08066,PAULSBORO,NJ,USC00289450,WEST DEPTFORD,1394.0
30534,DAWSONVILLE,GA,USC00092578,DAWSONVILLE,564.0
57234,ESTELLINE,SD,US1SDBK0009,BRUCE 4.1 NE,10689.0
48651,PRUDENVILLE,MI,US1MIRS0001,HOUGHTON LAKE 4.9 NE,6311.0
69036,LEBANON,NE,USC00254708,LEBANON,1587.0
71953,MENA,AR,US1ARPL0002,MENA 0.3 NNW,953.0
40370,SADIEVILLE,KY,USC00157074,SADIEVILLE,4027.0
95255,WEST POINT,CA,US1CACV0008,WILSEYVILLE 2.2 E,5282.0
83533,GREENCREEK,ID,USC00103835,GREENCREEK 3 N,4475.0
03073,NORTH SALEM,NH,US1NHRC0047,SALEM 1.7 NNE,1465.0
23412,MODEST TOWN,VA,USC00445983,NELSONIA,1386.0
55002,ALMELUND,MN,USC00218061,SUNRISE CITY,7594.0
51529,DUNLAP,IA,US1IAHR0006,WOODBINE 3.7 ENE,10703.0
81610,DINOSAUR,CO,US1COMF0028,DINOSAUR 0.3 SW,1027.0
65789,POMONA,MO,USW00053901,WEST PLAINS MUNI AP,2119.0
67563,OFFERLE,KS,USC00145920,OFFERLE 5 S,7337.0
97327,BROWNSVILLE,OR,US1ORLN0064,BROWNSVILLE 0.1 SE,3450.0
75780,NEW SUMMERFIELD,TX,USC00416335,NEW SUMMERFIELD 2W,3645.0
55964,PLAINVIEW,MN,USC00216571,PLAINVIEW,916.0
80749,SEDGWICK,CO,US1COSG0001,SEDGWICK,984.0
19963,MILFORD,DE,USC00075915,MILFORD 2 SE,1370.0
61323,DOVER,IL,US1ILBU0006,PRINCETON 0.3 ESE,8369.0
60534,LYONS,IL,US1ILCK0062,STICKNEY 1.2 W,1708.0
75701,TYLER,TX,USC00419207,TYLER,1506.0
05042,EAST RYEGATE,VT,USC00432578,EAST RYEGATE,1142.0
56273,NEW LONDON,MN,USC00215842,NEW LONDON,1668.0
84014,CENTERVILLE,UT,US1UTDV0009,CENTERVILLE 0.8 NE,607.0
99008,EDWALL,WA,US1WALN0008,DAVENPORT 7.2 ESE,13639.0
72677,SUMMIT,AR,US1ARMR0003,YELLVILLE 1.6 WNW,3438.0
96788,PUKALANI,HI,USC00510999,HALEAKALA RCH 432,2451.0
66086,TONGANOXIE,KS,USC00148157,TONGANOXIE 3 W,6091.0
24228,CLINTWOOD,VA,USC00441825,CLINTWOOD 1W,3653.0
82412,BYRON,WY,US1WYBH0007,LOVELL 2.4 SSW,7102.0
14144,STELLA NIAGARA,NY,USC00304717,LEWISTON 3 SE,4496.0
74871,STONEWALL,OK,US1OKPN0005,ADA 4.0 SE,12637.0
01337,BERNARDSTON,MA,US1MAFR0001,GILL 2.1 WSW,3142.0
37101,MC EWEN,TN,USC00405823,MCEWEN,296.0
50605,AREDALE,IA,USC00132388,DUMONT,8620.0
82001,CHEYENNE,WY,US1WYLM0138,CHEYENNE 0.2 SE,323.0
36922,WARD,AL,USC00014840,WHITFIELD LOCK 3,6938.0
02019,BELLINGHAM,MA,US1MANF0026,BELLINGHAM 2.4 S,3323.0
01540,OXFORD,MA,US1MAWR0068,OXFORD 0.9 SSW,1045.0
70721,CARVILLE,LA,USC00161565,CARVILLE 2 SW,3462.0
16345,RUSSELL,PA,USC00367729,RUSSELL RIVER,2086.0
61047,LEAF RIVER,IL,US1ILOG0014,MOUNT MORRIS 0.3 S,8814.0
03845,INTERVALE,NH,USC00271450,CHATHAM,3458.0
97028,GOVERNMENT CAMP,OR,USS0021D35S,Mud Ridge,3235.0
78616,DALE,TX,US1TXCLD016,DALE 4.4 SE,1343.0
80537,LOVELAND,CO,US1COLR0552,LOVELAND 1.3 NNE,860.0
06750,BANTAM,CT,USC00067373,SHEPAUG DAM,4998.0
46107,BEECH GROVE,IN,USC00124272,INDIANAPOLIS SE SIDE,1263.0
18623,LACEYVILLE,PA,US1PABF0005,WYALUSING 2.8 SSW,9533.0
66757,NEODESHA,KS,US1KSWL0006,NEODESHA 2.9 SSW,4271.0
53140,KENOSHA,WI,US1WIKN0006,KENOSHA 1.7 S,2319.0
08053,MARLTON,NJ,USC00285252,MARLTON 1 W,1135.0
34769,SAINT CLOUD,FL,US1FLOS0016,ST. CLOUD 0.1 WNW,1145.0
30145,KINGSTON,GA,USC00094854,KINGSTON,610.0
56756,SALOL,MN,USR0000MROS,ROSEAU MINNESOTA,9586.0
68840,GIBBON,NE,USC00253205,GIBBON,779.0
73006,APACHE,OK,USC00340260,APACHE,844.0
05747,GRANVILLE,VT,US1VTAD0020,HANCOCK 0.3 S,6524.0
38456,ETHRIDGE,TN,USC00402945,ETHRIDGE,366.0
78159,SMILEY,TX,US1TXGZ0012,SMILEY 0.4 NNE,966.0
43081,WESTERVILLE,OH,US1OHFR0010,WESTERVILLE 0.2 WNW,1004.0
61957,WINDSOR,IL,USC00119354,WINDSOR,1832.0
73061,MORRISON,OK,USC00346065,MORRISON,1015.0
45358,PITSBURG,OH,US1OHDR0017,PITSBURG 1.4 ENE,2092.0
95925,CHALLENGE,CA,USR0000CPIK,PIKE COUNTY LOOKOUT CALIFORNIA,1209.0
47670,PRINCETON,IN,US1INGB0012,PRINCETON 1.0 WSW,2461.0
01982,SOUTH HAMILTON,MA,US1MAES0002,BEVERLY 2.8 NW,3914.0
68304,ALVO,NE,US1NECA0002,ALVO 2.1 W,3924.0
32725,DELTONA,FL,US1FLVL0025,DELTONA 0.5 WNW,2151.0
73601,CLINTON,OK,USC00341909,CLINTON,670.0
42731,DUBRE,KY,US1KYCM0001,DUBRE 1.0 NE,2301.0
76933,BRONTE,TX,US1TXCKE002,BRONTE 5.0 NNE,8475.0
62621,BLUFFS,IL,USC00110781,BLUFFS,282.0
49718,CARP LAKE,MI,USC00205000,MACKINAW CITY 2,11265.0
83217,BANCROFT,ID,USC00101667,CHESTERFIELD,6690.0
97146,WARRENTON,OR,USC00353014,FT CLATSOP NATL MEM,3010.0
56330,FORESTON,MN,USC00215392,MILACA,3944.0
46376,SCHNEIDER,IN,US1INLK0065,LOWELL 5.6 SSW,3312.0
60803,ALSIP,IL,US1ILCK0153,ALSIP 0.2 E,105.0
75114,CRANDALL,TX,USC00412080,CRANDALL,760.0
14893,WAYNE,NY,USC00303619,HAMMONDSPORT,5788.0
21711,BIG POOL,MD,USC00183880,GREEN SPRING FURNACE,7732.0
48841,HENDERSON,MI,USC00206300,OWOSSO WWTP,7147.0
14505,MARION,NY,US1NYWN0009,MARION 2.0 NE,771.0
57651,REVA,SD,USC00397150,REVA,1140.0
58276,SAINT THOMAS,ND,US1NDWH0004,GRAFTON 6.8 N,12654.0
15522,BEDFORD,PA,USC00360492,BEDFORD,744.0
58482,STEELE,ND,US1NDKD0002,STEELE 0.6 WNW,1692.0
95642,JACKSON,CA,US1CAAM0010,JACKSON 0.4 S,526.0
80832,RAMAH,CO,US1COEP0011,RAMAH 3.8 SE,5674.0
32931,COCOA BEACH,FL,US1FLBV0058,MERRITT ISLAND 3.6 N,5746.0
17070,NEW CUMBERLAND,PA,USW00014751,HARRISBURG CPTL CY AP,2126.0
78638,KINGSBURY,TX,US1TXGP0016,KINGSBURY 0.5 S,1990.0
41520,DORTON,KY,USC00152237,DORTON,1506.0
45677,SCIOTO FURNACE,OH,USC00337884,SOUTH WEBSTER 3 SE,5259.0
48857,MORRICE,MI,USC00206297,OWOSSO 5 SSE,10752.0
98650,TROUT LAKE,WA,US1WAKL0007,TROUT LAKE 0.8 SSW,1999.0
21040,EDGEWOOD,MD,USC00189115,VAN BIBBER,1709.0
93429,CASMALIA,CA,USW00023273,SANTA MARIA PUBLIC AP,7854.0
24943,GRASSY MEADOWS,WV,USC00465886,MEADOW BLUFF 2 S,8040.0
08348,PORT ELIZABETH,NJ,US1NJAT0011,ESTELL MANOR 4.0 WNW,3342.0
84779,VIRGIN,UT,USR0000LAVA,LAVA POINT UTAH,10820.0
21650,MASSEY,MD,US1MDKN0003,MILLINGTON 2.9 NNE,2132.0
57576,VIVIAN,SD,USC00398727,VIVIAN,1681.0
04009,BRIDGTON,ME,USC00170844,BRIDGTON 3 NW,2407.0
80732,HEREFORD,CO,US1COWE0081,HER,792.0
71419,CONVERSE,LA,USC00162023,CONVERSE,3465.0
18039,DURHAM,PA,USC00368400,SPRINGTOWN 1 NNE,3985.0
30401,SWAINSBORO,GA,US1GAEM0001,SWAINSBORO 1.1 NE,1362.0
31011,CHAUNCEY,GA,US1GADG0004,CHAUNCEY 2.6 SW,4028.0
98343,JOYCE,WA,USC00456642,PORT CRESCENT,3771.0
63068,NEW HAVEN,MO,USC00236031,NEW HAVEN,1945.0
05458,GRAND ISLE,VT,USC00437607,S HERO,10404.0
59345,POWDERVILLE,MT,USC00246697,POWDERVILLE,11271.0
68467,YORK,NE,USC00259510,YORK,306.0
12540,LAGRANGEVILLE,NY,US1NYDT0012,LAGRANGEVILLE 3.4 NE,1804.0
84511,BLANDING,UT,USC00420738,BLANDING,7024.0
79547,RULE,TX,US1TXHSK003,RULE 0.5 NW,1171.0
74052,OILTON,OK,USC00346612,OILTON,471.0
38619,COMO,MS,US1MSTT0001,SENATOBIA 1.5 S,9957.0
94923,BODEGA BAY,CA,US1CASN0125,BODEGA BAY 1.3 NW,1992.0
51439,CHARTER OAK,IA,US1IACF0006,DENISON 8.6 WNW,5875.0
88419,FOLSOM,NM,USC00293242,FOLSOM,3026.0
02021,CANTON,MA,USW00054704,NORWOOD MEM AP,5787.0
15921,BEAVERDALE,PA,USC00362298,DUNLO,4660.0
37762,JELLICO,TN,USC00406493,NEWCOMB,5140.0
83341,KIMBERLY,ID,USW00094178,TWIN FALLS SUN VLY RGNL AP,11154.0
23025,CARDINAL,VA,USC00441383,CARDINAL,468.0
32301,TALLAHASSEE,FL,US1FLLN0023,TALLAHASSEE 0.6 SE,444.0
67857,KENDALL,KS,US1KSKE0014,KENDALL 3.3 SE,5388.0
55797,WRENSHALL,MN,US1MNCN0018,WRENSHALL 2.3 S,2462.0
49730,ELMIRA,MI,US1MIOT0005,GAYLORD 7.4 W,5676.0
97060,TROUTDALE,OR,USC00358631,TROUTDALE,2988.0
41351,MISTLETOE,KY,USC00156028,ONEIDA,7154.0
15619,BOVARD,PA,US1PAWT0009,GREENSBURG 0.6 WNW,3586.0
83811,CLARK FORK,ID,USS0016A04S,Mosquito Ridge,4464.0
27344,SILER CITY,NC,US1NCCH0028,SILER CITY 0.6 E,858.0
78572,MISSION,TX,USC00415973,MISSION PUMPING STN,1297.0
25443,SHEPHERDSTOWN,WV,USC00188205,SHARPSBURG,4839.0
06258,POMFRET,CT,USC00066645,PUTNAM,4038.0
40444,LANCASTER,KY,USC00154620,LANCASTER,801.0
36312,ASHFORD,AL,USC00014895,LUCY,10743.0
20794,JESSUP,MD,USC00189314,WATERLOO POLICE BRCK,3181.0
96136,WENDEL,CA,USC00043087,FLEMING FISH & GAME,11737.0
51448,KIRON,IA,US1IACF0002,SCHLESWIG 0.4 NE,9371.0
98645,SILVERLAKE,WA,USR0000WCAR,CASTLE ROCK WASHINGTON,9688.0
47564,OTWELL,IN,US1INDB0007,JASPER 8.8 NW,5351.0
90630,CYPRESS,CA,US1CAOR0052,CYPRESS 1.0 W,2429.0
19312,BERWYN,PA,US1PACH0042,BERWYN 0.7 WNW,2034.0
66434,HIAWATHA,KS,USC00143634,HIAWATHA 1 S,1608.0
48896,WINN,MI,USC00205667,MT PLEASANT,9729.0
65738,REPUBLIC,MO,US1MOGR0105,REPUBLIC 0.8 SE,360.0
58385,WOLFORD,ND,USC00324372,HURRICANE LAKE,12815.0
40386,VERSAILLES,KY,US1KYWF0001,VERSAILLES 1.7 WSW,3295.0
81638,HAMILTON,CO,USC00053738,HAMILTON,1021.0
19029,ESSINGTON,PA,USC00366880,PHILA AP SNOW,4151.0
42371,RUMSEY,KY,USC00151227,CALHOUN LOCK 2,4798.0
47930,CLARKS HILL,IN,US1INCL0010,FRANKFORT 7.9 WSW,5611.0
67347,HAVANA,KS,USC00143483,HAVANA,526.0
47017,CROSS PLAINS,IN,USC00122816,FARMERS RETREAT,10889.0
48321,AUBURN HILLS,MI,USC00206658,PONTIAC WWTP,3684.0
58310,AGATE,ND,USC00327655,ROLETTE 3SE,12687.0
85631,SAN MANUEL,AZ,USC00027530,SAN MANUEL,4606.0
95961,OLIVEHURST,CA,USW00093205,MARYSVILLE YUBA CO AP,2879.0
14471,HONEOYE,NY,USC00303955,HONEOYE,4979.0
26501,MORGANTOWN,WV,USC00466207,MORGANTOWN 1,932.0
04426,DOVER FOXCROFT,ME,USC00171975,DOVER-FOXCROFT WWTP,2555.0
39813,ARLINGTON,GA,USC00096359,NEWTON EXP STN PTNY PD,7570.0
71423,DRY PRONG,LA,US1LAGR0001,DRY PRONG 4.3 W,7988.0
28080,IRON STATION,NC,US1NCLN0008,IRON STATION 0.3 N,824.0
79083,STINNETT,TX,USC00418648,STINNETT (1),974.0
01834,GROVELAND,MA,US1MAES0004,GROVELAND 0.5 WSW,1079.0
66007,BASEHOR,KS,USC00140957,BONNER SPRINGS,6607.0
18322,BRODHEADSVILLE,PA,US1PAMN0013,SAYLORSBURG 2.8 W,2767.0
14517,NUNDA,NY,USC00301442,CHESTNUT LAWN,7115.0
58650,REGENT,ND,USC00327465,REGENT,851.0
12116,MARYLAND,NY,US1NYOT0015,ONEONTA 7.0 NE,9420.0
24354,MARION,VA,USC00445271,MARION,1594.0
93962,SPRECKELS,CA,USC00048446,SPRECKELS HWY BRG,3064.0
98946,THORP,WA,USC00452507,ELLENSBURG #2,14163.0
17938,HEGINS,PA,USC00363372,GOOD SPRINGS 1 NW,3414.0
84339,WELLSVILLE,UT,US1UTCH0002,HILLS 0.9 SW,5552.0
43512,DEFIANCE,OH,US1OHDF0001,DEFIANCE 0.9 E,1228.0
25507,CEREDO,WV,USC00464397,HUNTINGTON SWG PL,2395.0
81422,NATURITA,CO,USR0000CNUC,NUCLA COLORADO,2194.0
87710,ANGEL FIRE,NM,US1NMCL0006,ANGEL FIRE 0.2 SSE,652.0
13053,DRYDEN,NY,USC00303050,FREEVILLE 1 NE,4680.0
87048,CORRALES,NM,US1NMSN0077,CORRALES 0.5 S,270.0
57645,MORRISTOWN,SD,US1SDCR0001,MORRISTOWN 7.7 SSE,11202.0
07722,COLTS NECK,NJ,US1NJMN0012,COLTS NECK TWP 2.4 NW,5278.0
46761,LAGRANGE,IN,US1INLG0007,LAGRANGE 0.2 NNE,794.0
22601,WINCHESTER,VA,US1VAWNC001,WINCHESTER 0.5 ENE,949.0
27564,CREEDMOOR,NC,US1NCGV0013,WAKE FOREST 8.2 NNW,8748.0
45323,ENON,OH,US1OHCK0013,SPRINGFIELD 7.4 SW,2179.0
18914,CHALFONT,PA,US1PAMT0042,CHALFONT 0.2 NW,1286.0
73764,OMEGA,OK,US1OKKN0005,LOYAL 1.7 S,11660.0
37079,INDIAN MOUND,TN,US1TNST0005,INDIAN MOUND 3.6SE,4471.0
27932,EDENTON,NC,US1NCCW0018,EDENTON 0.2 NNW,996.0
51453,LOHRVILLE,IA,US1IAGN0001,CHURDAN 1.9 NNE,11167.0
02702,ASSONET,MA,USC00197475,SOMERSET (1),6262.0
87729,MIAMI,NM,USC00295691,MIAMI,2089.0
63332,AUGUSTA,MO,US1MOFR0010,WASHINGTON 2.7 ESE,8331.0
47226,CLIFFORD,IN,USW00013803,COLUMBUS BAKALAR AP,3750.0
47553,LOOGOOTEE,IN,US1INMT0001,LOOGOOTEE 0.3 ESE,471.0
53072,PEWAUKEE,WI,US1WIWK0037,WAUKESHA 2.0 NNW,4951.0
55008,CAMBRIDGE,MN,US1MNIS0006,CAMBRIDGE 3.0 N,5127.0
23310,CAPE CHARLES,VA,USC00441350,CAPE CHARLES,707.0
49727,EAST JORDAN,MI,USC00202381,E JORDAN,272.0
55376,SAINT MICHAEL,MN,US1MNWR0025,SAINT MICHAEL 2.0 ENE,599.0
99716,TWO RIVERS,AK,USC00509489,TWO RIVERS,4010.0
04095,WEST NEWFIELD,ME,US1MEYK0041,NEWFIELD 4.0 WSW,2516.0
03908,SOUTH BERWICK,ME,US1NHST0037,ROLLINSFORD 2.0 WSW,3758.0
77520,BAYTOWN,TX,USC00413640,GOOSE CREEK,986.0
41631,GRETHEL,KY,USC00156360,PIKEVILLE KSP POST 9,6944.0
83524,CULDESAC,ID,USC00102310,CULDESAC,2601.0
20643,IRONSIDES,MD,USW00013773,QUANTICO MCAS,12248.0
65668,HERMITAGE,MO,US1MOFSA085,HERMITAGE 0.5 ESE,454.0
19035,GLADWYNE,PA,USC00366904,PHILADELPHIA SHAWMONT,2663.0
68870,RIVERDALE,NE,US10buff036,RIVERDALE 0.2 WNW,739.0
49237,CONCORD,MI,USC00201744,CONCORD,663.0
15380,WIND RIDGE,PA,US1PAGR0004,ALEPPO 5.2 N,1718.0
46077,ZIONSVILLE,IN,US1INBN0055,ZIONSVILLE 0.5 ESE,435.0
79845,PRESIDIO,TX,USC00417264,PRESIDIO 2,1239.0
47024,LAUREL,IN,USC00124867,LAUREL,283.0
99013,FORD,WA,US1WAST0016,FORD 0.8 SW,1595.0
27045,RURAL HALL,NC,USC00317548,RURAL HALL,1561.0
66761,PIQUA,KS,USC00149080,YATES CTR,12382.0
30421,COLLINS,GA,USC00097439,REIDSVILLE,10481.0
12721,BLOOMINGBURG,NY,USC00300732,BLOOMINGBURG 2 SW,3960.0
19477,SPRING HOUSE,PA,USC00365368,MAPLE GLEN 2 ESE,1740.0
19702,NEWARK,DE,USC00076410,NEWARK UNIV FARM,137.0
32456,PORT SAINT JOE,FL,US1FLGF0001,PORT ST. JOE 0.6 SE,5545.0
30536,ELLIJAY,GA,US1GAGM0007,ELLIJAY 11.3 E,4665.0
72415,BLACK ROCK,AR,USC00030746,BLACK ROCK,4362.0
94548,KNIGHTSEN,CA,US1CACC0013,OAKLEY 1.7 W,8813.0
84645,MONA,UT,USC00427686,SANTAQUIN CHLORINATOR,13050.0
82215,HARTVILLE,WY,USC00488730,SUNRISE,2212.0
31548,KINGSLAND,GA,US1GACM0018,KINGSLAND 1.2 WSW,2118.0
28729,ETOWAH,NC,US1NCHN0034,HENDERSONVILLE 5.8 W,2335.0
75104,CEDAR HILL,TX,US1TXDA0007,CEDAR HILL 0.5 S,1084.0
63015,CATAWISSA,MO,US1MOJF0005,PACIFIC 3.0 SSE,4867.0
83520,AHSAHKA,ID,US1IDCW0004,AHSAHKA 0.4 NNE,2207.0
12866,SARATOGA SPRINGS,NY,US1NYSR0004,SARATOGA SPRINGS 0.5 S,822.0
46375,SCHERERVILLE,IN,US1INLK0027,SCHERERVILLE 0.6 SSW,1082.0
32710,CLARCONA,FL,US1FLOR0033,ORLANDO 7.2 WNW,4125.0
81125,CENTER,CO,US1COSA0039,CENTER 0.1 ESE,193.0
66862,MATFIELD GREEN,KS,USC00145069,MATFIELD GREEN,1111.0
65046,JAMESTOWN,MO,US1MOMT0006,JAMESTOWN 2.7 WNW,5161.0
75165,WAXAHACHIE,TX,US1TXEL0016,WAXAHACHIE 0.6 E,1112.0
59018,CLYDE PARK,MT,USC00241842,CLYDE PARK 2 SE,5289.0
99781,VENETIE,AK,USC00509693,VENETIE,3361.0
71275,SIMSBORO,LA,US1LALN0006,RUSTON 1.6 NW,11706.0
79560,SYLVESTER,TX,US1TXFS0004,SYLVESTER 0.2 SE,125.0
63860,KEWANEE,MO,US1MONM0007,NEW MADRID 0.2 SE,9308.0
85132,FLORENCE,AZ,US1AZPN0059,FLORENCE 6.2 SE,8394.0
62601,ALEXANDER,IL,USC00119034,WAVERLY,9064.0
86508,LUPTON,AZ,USC00025156,LUPTON,6911.0
